{"type": "FeatureCollection", "features": [{"type": "Feature", "properties": {}, "geometry": {"type": "Point", "coordinates": [-121.4903872, 37.3917539]}}, {"type": "Feature", "properties": {}, "geometry": {"type": "Point", "coordinates": [-121.596081, 36.9930825]}}, {"type": "Feature", "properties": {}, "geometry": {"type": "Point", "coordinates": [-121.273774, 37.0416472]}}, {"type": "Feature", "properties": {}, "geometry": {"type": "Point", "coordinates": [-121.2290795, 37.0634776]}}, {"type": "Feature", "properties": {}, "geometry": {"type": "Point", "coordinates": [-121.792549, 37.0846828]}}, {"type": "Feature", "properties": {}, "geometry": {"type": "Point", "coordinates": [-121.4788833, 37.108776]}}, {"type": "Feature", "properties": {}, "geometry": {"type": "Point", "coordinates": [-121.3824983, 36.9718258]}}, {"type": "Feature", "properties": {}, "geometry": {"type": "Point", "coordinates": [-121.7638543, 37.0485838]}}, {"type": "Feature", "properties": {}, "geometry": {"type": "Point", "coordinates": [-121.7638543, 37.0485838]}}, {"type": "Feature", "properties": {}, "geometry": {"type": "Point", "coordinates": [-121.6683829, 37.2347838]}}, {"type": "Feature", "properties": {}, "geometry": {"type": "Point", "coordinates": [-121.717122, 36.9960137]}}, {"type": "Feature", "properties": {}, "geometry": {"type": "Point", "coordinates": [-121.4903872, 37.3917539]}}, {"type": "Feature", "properties": {}, "geometry": {"type": "Point", "coordinates": [-121.6683829, 37.2347838]}}, {"type": "Feature", "properties": {}, "geometry": {"type": "Point", "coordinates": [-121.6253127, 37.0640969]}}, {"type": "Feature", "properties": {}, "geometry": {"type": "Point", "coordinates": [-121.4903872, 37.3917539]}}, {"type": "Feature", "properties": {}, "geometry": {"type": "Point", "coordinates": [-121.8019068, 37.4492019]}}, {"type": "Feature", "properties": {}, "geometry": {"type": "Point", "coordinates": [-121.4903872, 37.3917539]}}, {"type": "Feature", "properties": {}, "geometry": {"type": "Point", "coordinates": [-121.681728, 37.1021436]}}, {"type": "Feature", "properties": {}, "geometry": {"type": "Point", "coordinates": [-121.273774, 37.0416472]}}, {"type": "Feature", "properties": {}, "geometry": {"type": "Point", "coordinates": [-121.4903872, 37.3917539]}}, {"type": "Feature", "properties": {}, "geometry": {"type": "Point", "coordinates": [-121.7833542, 37.2284064]}}, {"type": "Feature", "properties": {}, "geometry": {"type": "Point", "coordinates": [-121.3835328, 36.9631462]}}, {"type": "Feature", "properties": {}, "geometry": {"type": "Point", "coordinates": [-121.7944046, 37.1985602]}}, {"type": "Feature", "properties": {}, "geometry": {"type": "Point", "coordinates": [-121.7390664, 37.0271848]}}, {"type": "Feature", "properties": {}, "geometry": {"type": "Point", "coordinates": [-121.5850031, 36.9825919]}}]}